CZ-3B R/B               
1 54879U 22178B   23005.29842405  .00004682  00000+0  14731-2 0  9994
2 54879  51.3282 117.1469 7521634 227.0539  39.0446  1.99185640   178
EROS C3                 
1 54880U 22179A   23005.59140117  .00000260  00000+0  00000+0 0  9990
2 54880 139.3529 257.7003 0012860 301.4646  58.6589 15.24142282   961
MARIO                   
1 55123U 98067UQ  23005.56608123  .00049299  00000+0  82769-3 0  9994
2 55123  51.6423  54.0129 0002884 283.5158  76.5510 15.51288190  1177
1998-067UR              
1 55124U 98067UR  23005.56625610  .00069476  00000+0  11579-2 0  9994
2 55124  51.6423  54.0142 0002801 281.0065  79.0609 15.51347004  1168
1998-067US              
1 55125U 98067US  23005.56647048  .00040923  00000+0  69248-3 0  9997
2 55125  51.6424  54.0154 0003652 278.0631  81.9944 15.51148658  1183
1998-067UT              
1 55126U 98067UT  23005.56667642  .00039114  00000+0  66439-3 0  9999
2 55126  51.6426  54.0166 0003741 277.8836  82.1729 15.51062202  1186
1998-067UU              
1 55127U 98067UU  23005.55608367  .00503330  00000+0  66161-2 0  9995
2 55127  51.6401  53.9457 0001038   1.5505 358.5490 15.56201265  1143
1998-067UV              
1 55128U 98067UV  23005.56763947  .00042937  00000+0  73317-3 0  9996
2 55128  51.6424  54.0229 0004680 259.2702 100.7760 15.50867443  1175
1998-067UW              
1 55129U 98067UW  23005.56834599  .00026020  00000+0  45278-3 0  9999
2 55129  51.6424  54.0275 0002583 244.2145 115.8577 15.50595568  1171
1998-067UX              
1 55130U 98067UX  23005.56844243  .00023121  00000+0  40393-3 0  9990
2 55130  51.6423  54.0290 0002625 245.2458 114.8258 15.50554218  1121
NOAA 1 [-]              
1 04793U 70106A   23005.66277451 -.00000015  00000+0  18169-3 0  9999
2 04793 101.5303  69.1652 0031259 288.4063 226.7507 12.54010506382936
NOAA 2 (ITOS-D) [-]     
1 06235U 72082A   23005.70334601 -.00000028  00000+0  11623-3 0  9995
2 06235 101.9768 354.3639 0004209  49.2806 124.4071 12.53155706297302
NOAA 3 [-]              
1 06920U 73086A   23005.44878065 -.00000039  00000+0  52060-4 0  9992
2 06920 102.2316 352.7521 0006491 279.9689 232.8209 12.40351748225830
NOAA 4 [-]              
1 07529U 74089A   23005.76089747 -.00000039  00000+0  42864-4 0  9999
2 07529 101.9391 351.1720 0009165  76.7630  95.3552 12.53164103201882
NOAA 5 [-]              
1 09057U 76077A   23005.72348841 -.00000039  00000+0  43641-4 0  9999
2 09057 102.1306 336.7691 0009704 124.8117  48.6451 12.37777943 98763
TIROS N [-]             
1 11060U 78096A   23005.37566479  .00000199  00000+0  11719-3 0  9995
2 11060  98.6091  58.4886 0009513 282.8156  77.1956 14.18459140500234
NOAA 6 [-]              
1 11416U 79057A   23005.77696931  .00000350  00000+0  14184-3 0  9997
2 11416  98.6595  21.9147 0010772  27.2068 332.9678 14.33869705270512
NOAA 7 [-]              
1 12553U 81059A   23005.76389173  .00000075  00000+0  59416-4 0  9993
2 12553  98.9726  57.4119 0010528 259.3428 100.6560 14.17365993146451
NOAA 8 [-]              
1 13923U 83022A   23005.73374535  .00000179  00000+0  88509-4 0  9990
2 13923  98.7023   0.6570 0014764 341.9822  18.0834 14.28875359 71293
NOAA 9 [-]              
1 15427U 84123A   23005.74215441  .00000140  00000+0  93865-4 0  9994
2 15427  99.0719 346.5688 0014217 315.1823 217.6302 14.16263563965248
NOAA 10 [-]             
1 16969U 86073A   23005.72767255  .00000151  00000+0  77975-4 0  9991
2 16969  98.5884 353.3681 0013275  80.5730  92.0284 14.28262227889708
NOAA 11 [-]             
1 19531U 88089A   23005.67188452  .00000069  00000+0  56483-4 0  9997
2 19531  98.4459 348.8544 0010425 320.8246  39.2174 14.15344538769425
NOAA 12 [-]             
1 21263U 91032A   23005.77934534  .00000126  00000+0  70539-4 0  9997
2 21263  98.5236   5.0263 0014726 106.2176 254.0626 14.26042334645568
NOAA 13 [-]             
1 22739U 93050A   23005.63165013  .00000134  00000+0  94292-4 0  9992
2 22739  98.5312 340.6100 0010399 121.1895 239.0299 14.12897451515609
NOAA 14 [-]             
1 23455U 94089A   23005.76045352  .00000067  00000+0  56493-4 0  9994
2 23455  98.4341  26.3797 0010607 101.6836 258.5529 14.14228493445303
NOAA 15 [B]             
1 25338U 98030A   23005.75380059  .00000179  00000+0  92633-4 0  9991
2 25338  98.6246  37.4445 0011332  70.1794 290.0607 14.26217108281853
NOAA 16 [-]             
1 26536U 00055A   23005.79649714  .00000103  00000+0  77495-4 0  9998
2 26536  98.6100  62.4380 0009618 311.6735  48.3615 14.13371334445933
NOAA 17 [-]             
1 27453U 02032A   23005.84206515  .00000199  00000+0  10331-3 0  9998
2 27453  98.6974 313.9701 0012659  46.9661 313.2576 14.25186755 67683
NOAA 18 [B]             
1 28654U 05018A   23005.75598381  .00000214  00000+0  13904-3 0  9991
2 28654  98.9291  80.8254 0015150 118.6327 241.6370 14.12833353908544
NOAA 19 [+]             
1 33591U 09005A   23005.78049927  .00000183  00000+0  12358-3 0  9994
2 33591  99.1244  48.9316 0013531 343.4607  16.6121 14.12661757716756
SUOMI NPP [+]           
1 37849U 11061A   23005.83609463  .00000087  00000+0  61982-4 0  9993
2 37849  98.7542 306.7538 0001351  83.6557 297.1386 14.19531993579916
NOAA 20 [+]             
1 43013U 17073A   23005.79579289  .00000086  00000+0  61408-4 0  9991
2 43013  98.7381 306.3540 0001125 114.3151 245.8143 14.19541538265938
NOAA 21 (JPSS-2) [+]    
1 54234U 22150A   23005.81360465  .00000090  00000+0  63315-4 0  9991
2 54234  98.7020 306.4416 0001105  85.7549 274.3754 14.19551891  8010
CELESTIS-02             
1 25160U 98007D   23005.64797619  .00000046  00000+0  78276-4 0  9990
2 25160 107.9883 313.9281 0060854 125.1382  47.4939 14.21678849291596
CELESTIS-03             
1 26034U 99070C   23005.79982639  .00038742  00000+0  14254-2 0  9994
2 26034  98.2992  37.9834 0008775 148.1663 212.0105 15.27733732251869
O3B FM5                 
1 39188U 13031A   23005.56657723 -.00000022  00000+0  00000+0 0  9991
2 39188   0.0656   4.2845 0002888 285.5049  70.1772  5.00115440174073
O3B FM4                 
1 39189U 13031B   23005.62249189 -.00000022  00000+0  00000+0 0  9992
2 39189   0.0387 356.1970 0002825 293.7896  69.9806  5.00115946174092
O3B FM2                 
1 39190U 13031C   23005.71403304 -.00000022  00000+0  00000+0 0  9995
2 39190   0.0345 351.7828 0002809 296.6002  71.5841  5.00115218174151
O3B PFM                 
1 39191U 13031D   23005.74022420 -.00000022  00000+0  00000+0 0  9995
2 39191   0.0565   3.9326 0002755 281.1129  74.9217  5.00115914173701
O3B FM3                 
1 40079U 14038A   23004.99542758 -.00000022  00000+0  00000+0 0  9997
2 40079   0.0462 358.6657 0004225 252.9230 108.3632  5.00116754150042
O3B FM7                 
1 40080U 14038B   23005.54124044 -.00000022  00000+0  00000+0 0  9995
2 40080   0.0445 353.4334 0003097 327.9234  38.6187  5.00115662154909
O3B FM6                 
1 40081U 14038C   23005.56764907 -.00000022  00000+0  00000+0 0  9996
2 40081   0.0453 359.3757 0002835 285.1976  75.3930  5.00115360154864
O3B FM8                 
1 40082U 14038D   23005.62149603 -.00000022  00000+0  00000+0 0  9994
2 40082   0.0421 359.5019 0002668 284.3050  76.1612  5.00115794154981
O3B FM10                
1 40348U 14083A   23005.44777888 -.00000022  00000+0  00000+0 0  9991
2 40348   0.0519   6.4102 0002731 278.6673  74.8900  5.00115245146924
O3B FM11                
1 40349U 14083B   23005.06140387 -.00000022  00000+0  00000+0 0  9998
2 40349   0.0541   1.8578 0003108 295.2272  62.8811  5.00115462146913
O3B FM12                
1 40350U 14083C   23005.68830879 -.00000022  00000+0  00000+0 0  9990
2 40350   0.0531   2.0388 0002942 284.2762  73.6503  5.00115369146962
O3B FM9                 
1 40351U 14083D   23004.71556109 -.00000022  00000+0  00000+0 0  9995
2 40351   0.0549   1.0446 0002760 284.6615  74.2614  5.00116179147067
DIAMOND RED             
1 42783U 17036U   23005.38104275  .00016487  00000+0  54041-3 0  9993
2 42783  97.1756  44.4396 0008806 340.5637  19.5268 15.31669023307806
DIAMOND GREEN           
1 42785U 17036W   23005.83389140  .00017802  00000+0  57985-3 0  9993
2 42785  97.1756  44.9555 0008546 340.4813  19.6101 15.31858908307940
DIAMOND BLUE            
1 42786U 17036X   23005.83479974  .00017324  00000+0  56545-3 0  9999
2 42786  97.1756  44.9452 0008696 340.9842  19.1074 15.31795559307946
LEO VANTAGE 1           
1 43113U 18004C   23005.76658030  .00002630  00000+0  21548-3 0  9993
2 43113  99.2427 112.4970 0396990 303.2419  53.1312 14.54838162253646
O3B FM15                
1 43231U 18024A   23005.58106066 -.00000022  00000+0  00000+0 0  9993
2 43231   0.0510  10.1171 0003089 275.1118  74.7346  5.00116273 88065
O3B FM16                
1 43232U 18024B   23005.43459883 -.00000022  00000+0  00000+0 0  9996
2 43232   0.0512  14.8333 0003092 270.9332  74.1971  5.00116080 87977
O3B FM14                
1 43233U 18024C   23005.47436367 -.00000022  00000+0  00000+0 0  9993
2 43233   0.0506  16.4455 0003045 272.8826  70.6366  5.00115491 87986
O3B FM13                
1 43234U 18024D   23005.72778915 -.00000022  00000+0  00000+0 0  9990
2 43234   0.0597   5.3015 0003906 277.9751  76.6775  5.00115560 88107
O3B FM20                
1 44112U 19020A   23005.70093932 -.00000022  00000+0  00000+0 0  9990
2 44112   0.0512   6.3750 0003425 282.2483  71.3372  5.00115595 68611
O3B FM19                
1 44113U 19020B   23004.92823818 -.00000022  00000+0  00000+0 0  9998
2 44113   0.0707  14.2362 0002743 299.4437  46.2951  5.00115341 68439
O3B FM17                
1 44114U 19020C   23005.60832248 -.00000022  00000+0  00000+0 0  9992
2 44114   0.0343  20.2527 0003204 264.2630  75.4463  5.00115765 68560
O3B FM18                
1 44115U 19020D   23005.55480560 -.00000022  00000+0  00000+0 0  9993
2 44115   0.0516   6.2909 0002976 278.0739  75.5998  5.00115913 68681
